EUTELSAT QUANTUM        
1 49056U 21069B   25264.58892793  .00000115  00000+0  00000+0 0  9997
2 49056   0.0210  76.6426 0002328 124.4832  59.2899  1.00271402 15239
EUTELSAT KONNECT VHTS   
1 53765U 22110A   25264.58000123  .00000007  00000+0  00000+0 0  9995
2 53765   0.0540 104.3346 0002612  62.1317  45.7497  1.00270637  4139
EUTELSAT HOTBIRD 13F    
1 54048U 22134A   25264.58208124  .00000077  00000+0  00000+0 0  9994
2 54048   0.0603 288.5423 0002017  68.1353 226.5783  1.00272343 10680
EUTELSAT HOTBIRD 13G    
1 54225U 22146A   25264.58208124  .00000077  00000+0  00000+0 0  9994
2 54225   0.0498 233.6963 0002061 309.5977  39.9756  1.00271972  4778
EUTELSAT 10B            
1 54259U 22157A   25264.58147456  .00000058  00000+0  00000+0 0  9992
2 54259   0.0562 102.2658 0001572 359.9771 117.7629  1.00271424 10320
EUTELSAT 36D            
1 59346U 24059A   25264.51517425  .00000145  00000+0  00000+0 0  9994
2 59346   0.0178 185.9365 0000067   9.0881  26.9317  1.00271753  5459
